0 GLOBALSTAR M019
1 25677U 99019B   13282.76784319 -.00000091  00000-0  40256-4 0  2485
2 25677 051.9921 078.2874 0001385 060.2522 043.9932 12.35937007666630
0 GLOBALSTAR M019
1 25677U 99019B   13284.46749964 -.00000099  00000-0 -20589-4 0  2498
2 25677 051.9924 073.3601 0001356 062.4077 047.8214 12.35937223666843
0 GLOBALSTAR M019
1 25677U 99019B   13285.76786847 -.00000107  00000-0 -85144-4 0  2503
2 25677 051.9927 069.5904 0001320 064.2040 074.5893 12.35937356667006
0 GLOBALSTAR M019
1 25677U 99019B   13286.82190625 -.00000104  00000-0 -66107-4 0  2510
2 25677 051.9930 066.5349 0001286 065.2595 085.5610 12.35937445667139
0 GLOBALSTAR M019
1 25677U 99019B   13288.09262656 -.00000104  00000-0 -64485-4 0  2523
2 25677 051.9933 062.8514 0001213 066.0434 341.3627 12.35937301667295
0 GLOBALSTAR M019
1 25677U 99019B   13289.47652520 -.00000091  00000-0  37237-4 0  2539
2 25677 051.9935 058.8398 0001184 067.4393 020.3633 12.35937198667462
0 GLOBALSTAR M019
1 25677U 99019B   13290.61529697 -.00000083  00000-0  99200-4 0  2545
2 25677 051.9936 055.5387 0001168 068.9080 048.1136 12.35937157667603
0 GLOBALSTAR M019
1 25677U 99019B   13291.75644326 -.00000066  00000-0  23583-3 0  2550
2 25677 051.9937 052.2308 0001151 070.0995 086.7114 12.35937150667744
0 GLOBALSTAR M019
1 25677U 99019B   13292.80988722 -.00000059  00000-0  29175-3 0  2564
2 25677 051.9938 049.1771 0001113 071.2468 094.9478 12.35937153667871
0 GLOBALSTAR M019
1 25677U 99019B   13294.49619892 -.00000083  00000-0  10539-3 0  2572
2 25677 051.9939 044.2889 0001077 072.2380 040.5363 12.35937317668087
0 GLOBALSTAR M019
1 25677U 99019B   13295.80433693 -.00000093  00000-0  25691-4 0  2589
2 25677 051.9940 040.4968 0001041 072.9557 102.9670 12.35937441668249
